{
  "norad_id": 55773,
  "name": "STARLINK-5833",
  "history": [
    {
      "epoch": "2026-03-28T16:00:04.642560",
      "apogee_km": 574.354908976471,
      "perigee_km": 569.7130287897744,
      "latitude_deg": -50.67758322299032,
      "longitude_deg": -178.6948416000232,
      "semi_major_axis_km": 6950.170968883122,
      "eccentricity": 0.00033394,
      "inclination_deg": 70.0008,
      "raan_deg": 176.6892,
      "arg_perigee_deg": 269.2882,
      "mean_anomaly_deg": 90.7895,
      "mean_motion_rev_day": 14.98337089
    }
  ]
}